NORAD_CAT_ID,OBJECT_NAME,OBJECT_TYPE,EPOCH,MEAN_MOTION,ECCENTRICITY,INCLINATION,RA_OF_ASC_NODE,ARG_OF_PERICENTER,MEAN_ANOMALY,BSTAR,MEAN_MOTION_DOT,MEAN_MOTION_DDOT,TLE_LINE0,TLE_LINE1,TLE_LINE2,SEMIMAJOR_AXIS,PERIOD,APOGEE,PERIGEE,DECAYED
53287.0,STARLINK-4107,PAYLOAD,2023-08-07 19:16:43,15.08841156,0.0001283,53.2173,105.881,95.6077,264.5062,8.2422e-05,1.024e-05,0.0,0 STARLINK-4107,1 53287U 22086AX  23219.80328346  .00001024  00000-0  82422-4 0  9993,2 53287  53.2173 105.8810 0001283  95.6077 264.5062 15.08841156 58387,6917.877,95.437,540.629,538.854,0.0
53287.0,STARLINK-4107,PAYLOAD,2023-08-08 01:38:15,15.08849962,0.00013,53.2173,104.6914,96.4006,263.7134,0.00015867,2.239e-05,0.0,0 STARLINK-4107,1 53287U 22086AX  23220.06823673  .00002239  00000-0  15867-3 0  9993,2 53287  53.2173 104.6914 0001300  96.4006 263.7134 15.08849962 58429,6917.85,95.437,540.614,538.816,0.0
53287.0,STARLINK-4107,PAYLOAD,2023-08-08 09:35:12,15.08837112,0.000148,53.216,103.2049,87.4277,272.6885,5.7644e-05,6.29e-06,0.0,0 STARLINK-4107,1 53287U 22086AX  23220.39944554  .00000629  00000-0  57644-4 0  9992,2 53287  53.2160 103.2049 0001480  87.4277 272.6885 15.08837112 58479,6917.889,95.438,540.778,538.73,0.0
53287.0,STARLINK-4107,PAYLOAD,2023-08-09 11:01:22,15.08837031,0.0001097,53.216,98.4481,86.8626,273.2492,0.00017498,2.498e-05,0.0,0 STARLINK-4107,1 53287U 22086AX  23221.45928907  .00002498  00000-0  17498-3 0  9992,2 53287  53.2160  98.4481 0001097  86.8626 273.2492 15.08837031 58638,6917.889,95.438,540.513,538.996,0.0
53287.0,STARLINK-4107,PAYLOAD,2023-08-09 22:09:04,15.08846898,0.0001088,53.2163,96.366,85.7429,274.3687,0.00021934,3.205e-05,0.0,0 STARLINK-4107,1 53287U 22086AX  23221.92296448  .00003205  00000-0  21934-3 0  9999,2 53287  53.2163  96.3660 0001088  85.7429 274.3687 15.08846898 58703,6917.859,95.437,540.477,538.972,0.0
53287.0,STARLINK-4107,PAYLOAD,2023-08-10 15:38:18,15.08840229,0.0001234,53.2156,93.0964,81.8168,278.2965,0.00012377,1.682e-05,0.0,0 STARLINK-4107,1 53287U 22086AX  23222.65160696  .00001682  00000-0  12377-3 0  9993,2 53287  53.2156  93.0964 0001234  81.8168 278.2965 15.08840229 58812,6917.88,95.438,540.598,538.891,0.0
53287.0,STARLINK-4107,PAYLOAD,2023-08-11 18:39:52,15.08834413,0.0001268,53.2162,88.0415,84.4008,275.7128,-4.6865e-05,-1.034e-05,0.0,0 STARLINK-4107,1 53287U 22086AX  23223.77769074 -.00001034  00000-0 -46865-4 0  9995,2 53287  53.2162  88.0415 0001268  84.4008 275.7128 15.08834413 58982,6917.897,95.438,540.64,538.885,0.0
53287.0,STARLINK-4107,PAYLOAD,2023-08-13 00:52:11,15.08856869,0.0001181,53.2165,82.3901,86.5259,273.5868,8.6591e-06,-1.5e-06,0.0,0 STARLINK-4107,1 53287U 22086AX  23225.03623873 -.00000150  00000-0  86591-5 0  9990,2 53287  53.2165  82.3901 0001181  86.5259 273.5868 15.08856869 59175,6917.829,95.436,540.511,538.877,0.0
53287.0,STARLINK-4107,PAYLOAD,2023-08-13 18:21:27,15.08833699,0.0001188,53.2172,79.1183,81.657,278.4557,8.4584e-05,1.058e-05,0.0,0 STARLINK-4107,1 53287U 22086AX  23225.76489802  .00001058  00000-0  84584-4 0  9998,2 53287  53.2172  79.1183 0001188  81.6570 278.4557 15.08833699 59285,6917.9,95.438,540.586,538.943,0.0
53287.0,STARLINK-4107,PAYLOAD,2023-08-14 16:36:50,15.08842548,0.0001254,53.2164,74.9554,91.0084,269.1051,7.7824e-05,9.51e-06,0.0,0 STARLINK-4107,1 53287U 22086AX  23226.69225254  .00000951  00000-0  77824-4 0  9990,2 53287  53.2164  74.9554 0001254  91.0084 269.1051 15.08842548 59425,6917.873,95.437,540.605,538.87,0.0
53287.0,STARLINK-4107,PAYLOAD,2023-08-14 22:58:22,15.08850686,0.0001255,53.2161,73.7659,88.8301,271.2835,0.00017833,2.552e-05,0.0,0 STARLINK-4107,1 53287U 22086AX  23226.95720837  .00002552  00000-0  17833-3 0  9998,2 53287  53.2161  73.7659 0001255  88.8301 271.2835 15.08850686 59462,6917.848,95.437,540.581,538.845,0.0
53287.0,STARLINK-4107,PAYLOAD,2023-08-15 22:49:10,15.08841664,0.0001384,53.216,69.305,87.0537,273.0613,0.00012384,1.684e-05,0.0,0 STARLINK-4107,1 53287U 22086AX  23227.95081418  .00001684  00000-0  12384-3 0  9995,2 53287  53.2160  69.3050 0001384  87.0537 273.0613 15.08841664 59619,6917.875,95.437,540.698,538.783,0.0
53287.0,STARLINK-4107,PAYLOAD,2023-08-17 19:19:57,15.0884486,0.0001429,53.2171,60.9743,108.5081,251.6066,0.00015311,2.15e-05,0.0,0 STARLINK-4107,1 53287U 22086AX  23229.80553208  .00002150  00000-0  15311-3 0  9994,2 53287  53.2171  60.9743 0001429 108.5081 251.6066 15.08844860 59895,6917.866,95.437,540.719,538.742,0.0
53287.0,STARLINK-4107,PAYLOAD,2023-08-18 08:03:03,15.08840153,0.000124,53.2156,58.6002,93.3072,266.8062,9.6984e-05,1.256e-05,0.0,0 STARLINK-4107,1 53287U 22086AX  23230.33545509  .00001256  00000-0  96984-4 0  9991,2 53287  53.2156  58.6002 0001240  93.3072 266.8062 15.08840153 59976,6917.88,95.438,540.603,538.887,0.0
53287.0,STARLINK-4107,PAYLOAD,2023-08-18 14:24:36,15.08834317,0.0001181,53.2168,57.4117,89.6289,270.4838,4.1526e-05,3.73e-06,0.0,0 STARLINK-4107,1 53287U 22086AX  23230.60041980  .00000373  00000-0  41526-4 0  9996,2 53287  53.2168  57.4117 0001181  89.6289 270.4838 15.08834317 60019,6917.898,95.438,540.58,538.946,0.0
53287.0,STARLINK-4107,PAYLOAD,2023-08-19 07:53:50,15.08887559,9.91e-05,53.2174,54.1406,74.434,285.6761,-0.00057794,-9.486e-05,0.0,0 STARLINK-4107,1 53287U 22086AX  23231.32905611 -.00009486  00000-0 -57794-3 0  9995,2 53287  53.2174  54.1406 0000991  74.4340 285.6761 15.08887559 60120,6917.735,95.435,540.286,538.914,0.0
53287.0,STARLINK-4107,PAYLOAD,2023-08-19 14:15:23,15.08833866,0.0001007,53.2167,52.951,100.5403,259.5702,0.00015589,2.194e-05,0.0,0 STARLINK-4107,1 53287U 22086AX  23231.59401885  .00002194  00000-0  15589-3 0  9991,2 53287  53.2167  52.9510 0001007 100.5403 259.5702 15.08833866 60165,6917.899,95.438,540.461,539.068,0.0
53287.0,STARLINK-4107,PAYLOAD,2023-08-19 22:12:18,15.08841067,0.0001067,53.2172,51.4636,103.2709,256.8402,0.00016177,2.288e-05,0.0,0 STARLINK-4107,1 53287U 22086AX  23231.92521436  .00002288  00000-0  16177-3 0  9991,2 53287  53.2172  51.4636 0001067 103.2709 256.8402 15.08841067 60214,6917.877,95.437,540.48,539.004,0.0
53287.0,STARLINK-4107,PAYLOAD,2023-08-20 12:30:47,15.08815466,0.0001199,53.2171,48.7856,103.2533,256.8593,0.00030482,4.563e-05,0.0,0 STARLINK-4107,1 53287U 22086AX  23232.52138868  .00004563  00000-0  30482-3 0  9994,2 53287  53.2171  48.7856 0001199 103.2533 256.8593 15.08815466 60302,6917.955,95.439,540.65,538.991,0.0
53287.0,STARLINK-4107,PAYLOAD,2023-08-20 18:52:19,15.08835443,0.0001005,53.2175,47.5968,88.7868,271.3239,0.00012076,1.634e-05,0.0,0 STARLINK-4107,1 53287U 22086AX  23232.78634062  .00001634  00000-0  12076-3 0  9994,2 53287  53.2175  47.5968 0001005  88.7868 271.3239 15.08835443 60341,6917.894,95.438,540.455,539.064,0.0
53287.0,STARLINK-4107,PAYLOAD,2023-08-22 20:09:17,15.08837624,0.0001161,53.2178,38.3795,89.379,270.7335,4.1786e-05,3.77e-06,0.0,0 STARLINK-4107,1 53287U 22086AX  23234.83978446  .00000377  00000-0  41786-4 0  9993,2 53287  53.2178  38.3795 0001161  89.3790 270.7335 15.08837624 60651,6917.888,95.438,540.556,538.949,0.0
53287.0,STARLINK-4107,PAYLOAD,2023-08-24 13:29:19,15.08812818,0.0001399,53.2168,30.6493,93.1862,266.929,0.0003543,5.351e-05,0.0,0 STARLINK-4107,1 53287U 22086AX  23236.56202673  .00005351  00000-0  35430-3 0  9992,2 53287  53.2168  30.6493 0001399  93.1862 266.9290 15.08812818 60910,6917.963,95.439,540.796,538.861,0.0
53287.0,STARLINK-4107,PAYLOAD,2023-08-25 10:09:19,15.08843499,0.000128,53.2176,26.782,88.588,271.5259,2.9061e-05,1.75e-06,0.0,0 STARLINK-4107,1 53287U 22086AX  23237.42314316  .00000175  00000-0  29061-4 0  9999,2 53287  53.2176  26.7820 0001280  88.5880 271.5259 15.08843499 61047,6917.87,95.437,540.62,538.849,0.0
53287.0,STARLINK-4107,PAYLOAD,2023-08-25 13:20:05,15.08843951,0.0001305,53.2176,26.1876,86.0572,274.057,3.1587e-05,2.15e-06,0.0,0 STARLINK-4107,1 53287U 22086AX  23237.55562269  .00000215  00000-0  31587-4 0  9996,2 53287  53.2176  26.1876 0001305  86.0572 274.0570 15.08843951 61228,6917.868,95.437,540.636,538.831,0.0
53287.0,STARLINK-4107,PAYLOAD,2023-08-25 16:30:51,15.08846201,0.0001253,53.2183,25.5917,88.6083,271.5053,3.9216e-05,3.36e-06,0.0,0 STARLINK-4107,1 53287U 22086AX  23237.68810059  .00000336  00000-0  39216-4 0  9994,2 53287  53.2183  25.5917 0001253  88.6083 271.5053 15.08846201 61243,6917.861,95.437,540.593,538.86,0.0
53287.0,STARLINK-4107,PAYLOAD,2023-08-26 13:10:53,15.08838553,0.0001317,53.218,21.7282,71.1113,289.0022,5.6128e-05,6.05e-06,0.0,0 STARLINK-4107,1 53287U 22086AX  23238.54922623  .00000605  00000-0  56128-4 0  9991,2 53287  53.2180  21.7282 0001317  71.1113 289.0022 15.08838553 61370,6917.885,95.438,540.661,538.839,0.0
53287.0,STARLINK-4107,PAYLOAD,2023-08-27 14:37:03,15.08839482,0.0001272,53.2186,16.9694,76.7644,283.349,1.9315e-05,2e-07,0.0,0 STARLINK-4107,1 53287U 22086AX  23239.60906811  .00000020  00000-0  19315-4 0  9998,2 53287  53.2186  16.9694 0001272  76.7644 283.3490 15.08839482 61377,6917.882,95.438,540.627,538.867,0.0
53287.0,STARLINK-4107,PAYLOAD,2023-08-27 19:23:12,15.08839417,0.0001279,53.2186,16.0774,76.3789,283.7346,1.7391e-05,-1.1e-07,0.0,0 STARLINK-4107,1 53287U 22086AX  23239.80778823 -.00000011  00000-0  17391-4 0  9993,2 53287  53.2186  16.0774 0001279  76.3789 283.7346 15.08839417 61563,6917.882,95.438,540.632,538.862,0.0
53287.0,STARLINK-4107,PAYLOAD,2023-08-28 01:44:44,15.08846141,0.0001192,53.2192,14.8874,80.8728,279.2399,1.5764e-05,-3.7e-07,0.0,0 STARLINK-4107,1 53287U 22086AX  23240.07274299 -.00000037  00000-0  15764-4 0  9992,2 53287  53.2192  14.8874 0001192  80.8728 279.2399 15.08846141 61441,6917.862,95.437,540.551,538.902,0.0
53287.0,STARLINK-4107,PAYLOAD,2023-08-28 16:03:14,15.08833685,0.0001309,53.2173,12.2139,93.5017,266.6125,4.5074e-05,4.29e-06,0.0,0 STARLINK-4107,1 53287U 22086AX  23240.66891245  .00000429  00000-0  45074-4 0  9994,2 53287  53.2173  12.2139 0001309  93.5017 266.6125 15.08833685 61534,6917.9,95.438,540.67,538.859,0.0
